{
  "type": "FeatureCollection",
  "features": [
    {
      "type": "Feature",
      "properties": {
        "norad_id": 66909,
        "name": "SILVERSAT",
        "group": "stations",
        "lat": 49.870474125638076,
        "lon": 149.97928474008634,
        "alt_km": 401.95935676033423,
        "timestamp": "2025-12-25T07:00:32.798927+00:00",
        "meta_object_name": "SILVERSAT",
        "meta_object_id": "1998-067XV",
        "meta_epoch": "2025-12-24T12:08:54.950784",
        "meta_mean_motion": 15.53202951,
        "meta_eccentricity": 0.00038249,
        "meta_inclination": 51.631,
        "meta_ra_of_asc_node": 83.8633,
        "meta_arg_of_pericenter": 300.8028,
        "meta_mean_anomaly": 59.2585,
        "meta_ephemeris_type": 0,
        "meta_classification_type": "U",
        "meta_norad_cat_id": 66909,
        "meta_element_set_no": 999,
        "meta_rev_at_epoch": 344,
        "meta_bstar": 0.0011617624,
        "meta_mean_motion_dot": 0.00074602,
        "meta_mean_motion_ddot": 0,
        "tle_line1": "1 66909U 98067XV  25358.50619156  .00074602  00000+0  11618-2 0  9993",
        "tle_line2": "2 66909  51.6310  83.8633 0003824 300.8028  59.2585 15.53202951  3445"
      },
      "geometry": {
        "type": "Point",
        "coordinates": [
          149.97928474008634,
          49.870474125638076
        ]
      }
    },
    {
      "type": "Feature",
      "properties": {
        "norad_id": 66910,
        "name": "1998-067XW",
        "group": "stations",
        "lat": 51.47652291027487,
        "lon": 164.3042096784239,
        "alt_km": 402.78578573440336,
        "timestamp": "2025-12-25T07:00:32.798937+00:00",
        "meta_object_name": "1998-067XW",
        "meta_object_id": "1998-067XW",
        "meta_epoch": "2025-12-24T15:11:47.467392",
        "meta_mean_motion": 15.53149596,
        "meta_eccentricity": 0.00038741,
        "meta_inclination": 51.6312,
        "meta_ra_of_asc_node": 83.2108,
        "meta_arg_of_pericenter": 273.1727,
        "meta_mean_anomaly": 86.882,
        "meta_ephemeris_type": 0,
        "meta_classification_type": "U",
        "meta_norad_cat_id": 66910,
        "meta_element_set_no": 999,
        "meta_rev_at_epoch": 346,
        "meta_bstar": 0.0010215807,
        "meta_mean_motion_dot": 0.00065339,
        "meta_mean_motion_ddot": 0,
        "tle_line1": "1 66910U 98067XW  25358.63318828  .00065339  00000+0  10216-2 0  9991",
        "tle_line2": "2 66910  51.6312  83.2108 0003874 273.1727  86.8820 15.53149596  3468"
      },
      "geometry": {
        "type": "Point",
        "coordinates": [
          164.3042096784239,
          51.47652291027487
        ]
      }
    },
    {
      "type": "Feature",
      "properties": {
        "norad_id": 66911,
        "name": "1998-067XX",
        "group": "stations",
        "lat": 48.109760126397035,
        "lon": -162.16152455893234,
        "alt_km": 401.59862734590115,
        "timestamp": "2025-12-25T07:00:32.798947+00:00",
        "meta_object_name": "1998-067XX",
        "meta_object_id": "1998-067XX",
        "meta_epoch": "2025-12-24T12:01:16.027680",
        "meta_mean_motion": 15.53629314,
        "meta_eccentricity": 0.00036167,
        "meta_inclination": 51.6307,
        "meta_ra_of_asc_node": 83.8279,
        "meta_arg_of_pericenter": 280.2913,
        "meta_mean_anomaly": 79.7669,
        "meta_ephemeris_type": 0,
        "meta_classification_type": "U",
        "meta_norad_cat_id": 66911,
        "meta_element_set_no": 999,
        "meta_rev_at_epoch": 343,
        "meta_bstar": 0.001193789,
        "meta_mean_motion_dot": 0.00077903,
        "meta_mean_motion_ddot": 0,
        "tle_line1": "1 66911U 98067XX  25358.50087995  .00077903  00000+0  11938-2 0  9998",
        "tle_line2": "2 66911  51.6307  83.8279 0003616 280.2913  79.7669 15.53629314  3438"
      },
      "geometry": {
        "type": "Point",
        "coordinates": [
          -162.16152455893234,
          48.109760126397035
        ]
      }
    },
    {
      "type": "Feature",
      "properties": {
        "norad_id": 66912,
        "name": "1998-067XY",
        "group": "stations",
        "lat": 26.7885659928584,
        "lon": 103.61475975988367,
        "alt_km": 407.15660811573434,
        "timestamp": "2025-12-25T07:00:32.798957+00:00",
        "meta_object_name": "1998-067XY",
        "meta_object_id": "1998-067XY",
        "meta_epoch": "2025-12-24T12:19:04.376640",
        "meta_mean_motion": 15.52269671,
        "meta_eccentricity": 0.00038943,
        "meta_inclination": 51.6319,
        "meta_ra_of_asc_node": 83.9109,
        "meta_arg_of_pericenter": 289.4763,
        "meta_mean_anomaly": 70.5806,
        "meta_ephemeris_type": 0,
        "meta_classification_type": "U",
        "meta_norad_cat_id": 66912,
        "meta_element_set_no": 999,
        "meta_rev_at_epoch": 343,
        "meta_bstar": 0.00087040154,
        "meta_mean_motion_dot": 0.00053773,
        "meta_mean_motion_ddot": 0,
        "tle_line1": "1 66912U 98067XY  25358.51324510  .00053773  00000+0  87040-3 0  9994",
        "tle_line2": "2 66912  51.6319  83.9109 0003894 289.4763  70.5806 15.52269671  3434"
      },
      "geometry": {
        "type": "Point",
        "coordinates": [
          103.61475975988367,
          26.7885659928584
        ]
      }
    }
  ]
}